*******************************************************************************
JPL/HORIZONS               113 Amalthea (A871 EA)          2020-Jun-20 08:15:39
Rec #:     113 (+COV) Soln.date: 2020-Feb-22_15:17:25   # obs: 3024 (1871-2020)
 
IAU76/J2000 helio. ecliptic osc. elements (au, days, deg., period=Julian yrs):
 
  EPOCH=  2454823.5 ! 2008-Dec-23.00 (TDB)         Residual RMS= .40123
   EC= .0882571755929569   QR= 2.165690001455462   TP= 2455418.8101906208
   OM= 123.5715323515757   W=  78.58096153816481   IN= 5.039351437436773
   A= 2.375329910453565    MA= 199.7265872346695   ADIST= 2.584969819451667
   PER= 3.66095            N= .269226717           ANGMOM= .026408599
   DAN= 2.31635            DDN= 2.39874            L= 202.1093541
   B= 4.9393494            MOID= 1.16854           TP= 2010-Aug-10.3101906208
 
Asteroid physical parameters (km, seconds, rotational period in hours):
   GM= n.a.                RAD= 25.0685            ROTPER= 9.95
   H= 8.5                  G= .350                 B-V= .925
                           ALBEDO= .224            STYP= S
 
ASTEROID comments: 
1: soln ref.= JPL#119, OCC=0
2: source=ORB
*******************************************************************************
 
 
*******************************************************************************
Ephemeris / WWW_USER Sat Jun 20 08:15:39 2020 Pasadena, USA      / Horizons
*******************************************************************************
Target body name: 113 Amalthea (A871 EA)          {source: JPL#119}
Center body name: Solar System Barycenter (0)     {source: DE431}
Center-site name: BODY CENTER
*******************************************************************************
Start time      : A.D. 1969-Jun-28 00:00:00.0000 TDB
Stop  time      : A.D. 2071-May-04 00:00:00.0000 TDB
Step-size       : 7200 minutes
*******************************************************************************
Center geodetic : 0.00000000,0.00000000,0.0000000 {E-lon(deg),Lat(deg),Alt(km)}
Center cylindric: 0.00000000,0.00000000,0.0000000 {E-lon(deg),Dxy(km),Dz(km)}
Center radii    : (undefined)                                                  
Small perturbers: Yes                             {source: SB431-N16}
Output units    : AU-D
Output type     : GEOMETRIC cartesian states
Output format   : 2 (position and velocity)
Reference frame : Ecliptic of J2000.0
*******************************************************************************
Initial IAU76/J2000 heliocentric ecliptic osculating elements (au, days, deg.):
  EPOCH=  2454823.5 ! 2008-Dec-23.00 (TDB)         Residual RMS= .40123        
   EC= .0882571755929569   QR= 2.165690001455462   TP= 2455418.8101906208      
   OM= 123.5715323515757   W=  78.58096153816481   IN= 5.039351437436773       
  Equivalent ICRF heliocentric equatorial cartesian coordinates (au, au/d):
   X= 1.998484563847942E+00  Y= 1.564300978927761E+00  Z= 4.327420218123365E-01
  VX=-6.642712482909277E-03 VY= 7.132809471234109E-03 VZ= 3.208753160996219E-03
Asteroid physical parameters (km, seconds, rotational period in hours):        
   GM= n.a.                RAD= 25.0685            ROTPER= 9.95                
   H= 8.5                  G= .350                 B-V= .925                   
                           ALBEDO= .224            STYP= S                     
*******************************************************************************
            JDTDB,            Calendar Date (TDB),        delta-T,                      X,                      Y,                      Z,                     VX,                     VY,                     VZ,
******************************************************************************************************************************************************************************************************************
$$SOE
2457340.500000000, A.D. 2015-Nov-14 00:00:00.0000,      68.182733,  2.561186151750363E+00,  1.175099811295901E-01, -1.940182989212761E-01, -1.737903441777969E-04,  1.028860347409568E-02, -4.877328550385885E-04,
2457345.500000000, A.D. 2015-Nov-19 00:00:00.0000,      68.182829,  2.559758629627567E+00,  1.689238345687026E-01, -1.964144431661591E-01, -3.971281746795467E-04,  1.027619380013630E-02, -4.706952649156051E-04,
2457350.500000000, A.D. 2015-Nov-24 00:00:00.0000,      68.182933,  2.557215833250203E+00,  2.202644955492963E-01, -1.987249610500081E-01, -6.198880798685666E-04,  1.025932999094643E-02, -4.534833615401403E-04,
2457355.500000000, A.D. 2015-Nov-29 00:00:00.0000,      68.183045,  2.553560831178606E+00,  2.715097462393651E-01, -2.009489967457785E-01, -8.419985967665581E-04,  1.023803325174371E-02, -4.361034357568163E-04,
2457360.500000000, A.D. 2015-Dec-04 00:00:00.0000,      68.183164,  2.548797047658169E+00,  3.226374758344673E-01, -2.030857258095146E-01, -1.063388908708389E-03,  1.021232518601732E-02, -4.185617502596285E-04,
2457365.500000000, A.D. 2015-Dec-09 00:00:00.0000,      68.183292,  2.542928259471938E+00,  3.736256825158740E-01, -2.051343550442002E-01, -1.283988811706606E-03,  1.018222778255832E-02, -4.008645414449144E-04,
2457370.500000000, A.D. 2015-Dec-14 00:00:00.0000,      68.183426,  2.535958592961017E+00,  4.244524753485607E-01, -2.070941223730515E-01, -1.503728680950304E-03,  1.014776340436300E-02, -3.830180213366336E-04,
2457375.500000000, A.D. 2015-Dec-19 00:00:00.0000,      68.183564,  2.527892521212199E+00,  4.750960761283247E-01, -2.089642967226264E-01, -1.722539437417182E-03,  1.010895477937169E-02, -3.650283795874837E-04,
2457380.500000000, A.D. 2015-Dec-24 00:00:00.0000,      68.183703,  2.518734861412349E+00,  5.255348211869983E-01, -2.107441779161532E-01, -1.940352514555740E-03,  1.006582499292829E-02, -3.469017855704678E-04,
2457385.500000000, A.D. 2015-Dec-29 00:00:00.0000,      68.183844,  2.508490772369033E+00,  5.757471631638340E-01, -2.124330965775630E-01, -2.157099825149616E-03,  1.001839748177059E-02, -3.286443905643534E-04,
2457390.500000000, A.D. 2016-Jan-03 00:00:00.0000,      68.183988,  2.497165752195385E+00,  6.257116727501204E-01, -2.140304140466140E-01, -2.372713728875508E-03,  9.966696029307867E-03, -3.102623299934046E-04,
2457395.500000000, A.D. 2016-Jan-08 00:00:00.0000,      68.184133,  2.484765636154251E+00,  6.754070404141739E-01, -2.155355223051215E-01, -2.587127001053314E-03,  9.910744762630805E-03, -2.917617256120108E-04,
2457400.500000000, A.D. 2016-Jan-13 00:00:00.0000,      68.184278,  2.471296594656694E+00,  7.248120781173152E-01, -2.169478439139365E-01, -2.800272801905659E-03,  9.850568151973436E-03, -2.731486876429221E-04,
2457405.500000000, A.D. 2016-Jan-18 00:00:00.0000,      68.184419,  2.456765131416009E+00,  7.739057210329100E-01, -2.182668319609134E-01, -3.012084644977348E-03,  9.786191012290361E-03, -2.544293170661483E-04,
2457410.500000000, A.D. 2016-Jan-23 00:00:00.0000,      68.184556,  2.441178081761104E+00,  8.226670292761561E-01, -2.194919700208571E-01, -3.222496365216544E-03,  9.717638505861138E-03, -2.356097081035865E-04,
2457415.500000000, A.D. 2016-Jan-28 00:00:00.0000,      68.184688,  2.424542611107350E+00,  8.710751896492248E-01, -2.206227721280378E-01, -3.431442088036631E-03,  9.644936145918454E-03, -2.166959507354610E-04,
2457420.500000000, A.D. 2016-Feb-02 00:00:00.0000,      68.184816,  2.406866213579281E+00,  9.191095174082872E-01, -2.216587827611978E-01, -3.638856199440969E-03,  9.568109801838790E-03, -1.976941331831329E-04,
2457425.500000000, A.D. 2016-Feb-07 00:00:00.0000,      68.184940,  2.388156710780966E+00,  9.667494580607867E-01, -2.225995768409637E-01, -3.844673316780281E-03,  9.487185706042928E-03, -1.786103443955835E-04,
2457430.500000000, A.D. 2016-Feb-12 00:00:00.0000,      68.185056,  2.368422250711395E+00,  1.013974589201306E+00, -2.234447597397656E-01, -4.048828259977198E-03,  9.402190462515425E-03, -1.594506765683879E-04,
2457435.500000000, A.D. 2016-Feb-17 00:00:00.0000,      68.185164,  2.347671306822547E+00,  1.060764622393897E+00, -2.241939673044454E-01, -4.251256023245859E-03,  9.313151056861533E-03, -1.402212276994356E-04,
2457440.500000000, A.D. 2016-Feb-22 00:00:00.0000,      68.185261,  2.325912677217473E+00,  1.107099405108453E+00, -2.248468658917260E-01, -4.451891747371915E-03,  9.220094867861253E-03, -1.209281041768799E-04,
2457445.500000000, A.D. 2016-Feb-27 00:00:00.0000,      68.185348,  2.303155483985472E+00,  1.152958922718552E+00, -2.254031524166891E-01, -4.650670692609334E-03,  9.123049680504513E-03, -1.015774233938518E-04,
2457450.500000000, A.D. 2016-Mar-03 00:00:00.0000,      68.185426,  2.279409172671123E+00,  1.198323300568168E+00, -2.258625544143829E-01, -4.847528212241040E-03,  9.022043700500804E-03, -8.217531638492590E-05,
2457455.500000000, A.D. 2016-Mar-08 00:00:00.0000,      68.185494,  2.254683511873790E+00,  1.243172806114625E+00, -2.262248301146583E-01, -5.042399726841569E-03,  8.917105570269940E-03, -6.272793048005116E-05,
2457460.500000000, A.D. 2016-Mar-13 00:00:00.0000,      68.185552,  2.228988592973997E+00,  1.287487851155248E+00, -2.264897685303122E-01, -5.235220699265556E-03,  8.808264386435611E-03, -4.324143197396155E-05,
2457465.500000000, A.D. 2016-Mar-18 00:00:00.0000,      68.185597,  2.202334829983041E+00,  1.331248994145322E+00, -2.266571895586222E-01, -5.425926610355645E-03,  8.695549718861276E-03, -2.372200881468811E-05,
2457470.500000000, A.D. 2016-Mar-23 00:00:00.0000,      68.185628,  2.174732959512422E+00,  1.374436942615160E+00, -2.267269440964062E-01, -5.614452935294838E-03,  8.578991631262351E-03, -4.175873329292337E-06,
2457475.500000000, A.D. 2016-Mar-28 00:00:00.0000,      68.185647,  2.146194040860111E+00,  1.417032555694009E+00, -2.266989141688669E-01, -5.800735120509822E-03,  8.458620703271733E-03,  1.539073498382259E-05,
